[{"OBJECT_NAME":"VSP ROSE","OBJECT_ID":"2024-043AC","EPOCH":"2026-03-09T21:48:06.922944","MEAN_MOTION":15.27746075,"ECCENTRICITY":0.00099339,"INCLINATION":97.5443,"RA_OF_ASC_NODE":203.927,"ARG_OF_PERICENTER":232.2702,"MEAN_ANOMALY":127.7637,"EPHEMERIS_TYPE":0,"CLASSIFICATION_TYPE":"U","NORAD_CAT_ID":59124,"ELEMENT_SET_NO":999,"REV_AT_EPOCH":11182,"BSTAR":0.00025731354,"MEAN_MOTION_DOT":6.907e-5,"MEAN_MOTION_DDOT":0},{"OBJECT_NAME":"STARLINK-31457","OBJECT_ID":"2024-064S","EPOCH":"2026-03-09T06:58:39.895392","MEAN_MOTION":15.27578094,"ECCENTRICITY":0.00013934,"INCLINATION":43.0052,"RA_OF_ASC_NODE":51.5708,"ARG_OF_PERICENTER":275.0947,"MEAN_ANOMALY":84.9746,"EPHEMERIS_TYPE":0,"CLASSIFICATION_TYPE":"U","NORAD_CAT_ID":59414,"ELEMENT_SET_NO":999,"REV_AT_EPOCH":10924,"BSTAR":-1.7400657e-5,"MEAN_MOTION_DOT":-7.41e-6,"MEAN_MOTION_DDOT":0}]
